GLOBALSTAR M068 [-]     
1 32266U 07048D   23330.93316229 -.00000030  00000+0  40920-3 0  9995
2 32266  51.9880 234.4076 0001173  21.6800  58.7777 12.62772390745766
GLOBALSTAR M079 [+]     
1 37188U 10054A   23331.59536345 -.00000108  00000+0 -21032-4 0  9991
2 37188  52.0044  67.6244 0000870 123.4972 340.2940 12.62270026604770
GLOBALSTAR M074 [+]     
1 37189U 10054B   23331.45785605 -.00000097  00000+0  37940-4 0  9993
2 37189  52.0023  67.4527 0000654 122.9660 316.3460 12.62272121605363
GLOBALSTAR M076 [+]     
1 37190U 10054C   23331.56946289 -.00000109  00000+0 -28254-4 0  9997
2 37190  52.0038  67.2346 0001030 151.2024 314.0623 12.62263830605099
GLOBALSTAR M077 [+]     
1 37191U 10054D   23331.47696946 -.00000073  00000+0  17137-3 0  9996
2 37191  52.0100  24.2117 0000367 125.7868 338.3418 12.62266905605450
GLOBALSTAR M075 [+]     
1 37192U 10054E   23331.57729469 -.00000112  00000+0 -45290-4 0  9992
2 37192  51.9933 109.7853 0001034 106.8137 332.9371 12.62267792604328
GLOBALSTAR M073 [+]     
1 37193U 10054F   23331.33931244 -.00000072  00000+0  17922-3 0  9997
2 37193  52.0086  23.8945 0000472 125.2485 314.4495 12.62269688606122
GLOBALSTAR M083 [+]     
1 37739U 11033A   23331.19388681 -.00000085  00000+0  10598-3 0  9992
2 37739  51.9878 333.8449 0000556  66.5173  12.8948 12.62263216575120
GLOBALSTAR M088 [+]     
1 37740U 11033B   23331.18634250 -.00000070  00000+0  19002-3 0  9992
2 37740  51.9730 239.8376 0001149  70.1582  94.6806 12.62267880570663
GLOBALSTAR M091 [+]     
1 37741U 11033C   23331.12065608 -.00000057  00000+0  26063-3 0  9992
2 37741  51.9983 202.5779 0001378  79.3416  86.0609 12.62269008571446
GLOBALSTAR M085 [+]     
1 37742U 11033D   23331.03098042 -.00000084  00000+0  10811-3 0  9995
2 37742  51.9837 154.3910 0001341  91.9659  86.0789 12.62265573571942
GLOBALSTAR M081 [+]     
1 37743U 11033E   23331.49726973 -.00000076  00000+0  15415-3 0  9993
2 37743  51.9928 155.4077 0001413  99.3055 278.7201 12.62267472572155
GLOBALSTAR M089 [+]     
1 37744U 11033F   23331.54976785 -.00000121  00000+0 -94999-4 0  9995
2 37744  51.9911 109.5794 0000895 125.2863 311.6067 12.62269792573002
GLOBALSTAR M084 [+]     
1 38040U 11080A   23331.42037186 -.00000067  00000+0  20338-3 0  9990
2 38040  52.0029 336.9652 0000124 145.6850   1.7707 12.62268320550964
GLOBALSTAR M080 [+]     
1 38041U 11080B   23331.22080508 -.00000074  00000+0  16427-3 0  9997
2 38041  52.0079 338.9796 0000295 165.0731 275.0683 12.62266674551065
GLOBALSTAR M082 [+]     
1 38042U 11080C   23331.33158062 -.00000094  00000+0  55900-4 0  9993
2 38042  52.0084 294.0266 0001213  38.3550 126.6979 12.62268267551786
GLOBALSTAR M092 [+]     
1 38043U 11080D   23331.45032900 -.00000078  00000+0  14552-3 0  9998
2 38043  52.0111  24.0098 0000240 183.5056 281.8663 12.62262928550258
GLOBALSTAR M090 [+]     
1 38044U 11080E   23331.27459941 -.00000090  00000+0  74664-4 0  9992
2 38044  51.9892 288.7393 0000880  51.9578  94.7199 12.62263856551894
GLOBALSTAR M086 [+]     
1 38045U 11080F   23331.30143520 -.00000087  00000+0  90930-4 0  9990
2 38045  51.9904 289.1661 0001189 109.3366  38.3527 12.62264802551844
GLOBALSTAR M097 [+]     
1 39072U 13005A   23331.05780093 -.00000052  00000+0  29070-3 0  9992
2 39072  52.0030 203.8780 0001328  79.2386 280.8630 12.62272996499061
GLOBALSTAR M093 [+]     
1 39073U 13005B   23331.11052765 -.00000057  00000+0  26166-3 0  9996
2 39073  51.9792 197.9298 0001588  83.7905 276.3143 12.62269341499022
GLOBALSTAR M094 [+]     
1 39074U 13005C   23331.58567623 -.00000112  00000+0 -47621-4 0  9995
2 39074  51.9943 110.2942 0001137 110.3325 249.7664 12.62270071500698
GLOBALSTAR M096 [+]     
1 39075U 13005D   23330.96547572 -.00000078  00000+0  14318-3 0  9994
2 39075  52.0045 160.2559 0001423  91.9697 268.1333 12.62266688499534
GLOBALSTAR M078 [+]     
1 39076U 13005E   23330.93892229 -.00000035  00000+0  38584-3 0  9998
2 39076  51.9871 245.6183 0001473  30.1035 329.9916 12.62265712498367
GLOBALSTAR M095 [+]     
1 39077U 13005F   23331.12374922 -.00000066  00000+0  20837-3 0  9992
2 39077  51.9797 242.5351 0001511  53.2269 306.8736 12.62271059498035
GLOBALSTAR M087 [+]     
1 52888U 22064A   23331.01096629 -.00000053  00000+0  14222-3 0  9992
2 52888  51.9742 196.8389 0008880 203.8869 156.1621 13.37559132 70339
